ISS (ZARYA)             
1 25544U 98067A   26002.56507418  .00015753  00000+0  29291-3 0  9992
2 25544  51.6329  39.3546 0007530 331.9903  28.0679 15.49039326546088
CSS (TIANHE)            
1 48274U 21035A   26002.71819254  .00030782  00000+0  37051-3 0  9991
2 48274  41.4660 249.2667 0010301 206.2157 153.8161 15.60093313267306
ISS (NAUKA)             
1 49044U 21066A   26002.24250498  .00016008  00000+0  29760-3 0  9991
2 49044  51.6329  40.9506 0007531 330.5355  29.5208 15.49029434230443
FREGAT DEB              
1 49271U 11037PF  26002.61984907  .00028799  00000+0  61645-1 0  9996
2 49271  51.6430 137.6925 0873853 269.6055  80.4748 12.34901136204517
CSS (WENTIAN)           
1 53239U 22085A   26002.14205039  .00029116  00000+0  35128-3 0  9993
2 53239  41.4662 252.7694 0010191 202.3911 157.6484 15.60055172173842
CSS (MENGTIAN)          
1 54216U 22143A   26002.14205039  .00029116  00000+0  35128-3 0  9994
2 54216  41.4662 252.7694 0010191 202.3911 157.6484 15.60055172158649
SHENZHOU-20 (SZ-20)     
1 63632U 25082A   26002.14205039  .00029116  00000+0  35128-3 0  9991
2 63632  41.4662 252.7694 0010191 202.3911 157.6484 15.60055172255302
PROGRESS-MS 31          
1 64751U 25146A   26002.24250498  .00016008  00000+0  29760-3 0  9996
2 64751  51.6329  40.9506 0007531 330.5355  29.5208 15.49029434  6750
TIANZHOU-9              
1 64786U 25149A   26002.14205039  .00029116  00000+0  35128-3 0  9996
2 64786  41.4662 252.7694 0010191 202.3911 157.6484 15.60055172255303
CREW DRAGON 11          
1 65077U 25166A   26002.24250498  .00016008  00000+0  29760-3 0  9990
2 65077  51.6329  40.9506 0007531 330.5355  29.5208 15.49029434  2141
DRAGON CRS-33           
1 65304U 25186A   26002.24250498  .00016008  00000+0  29760-3 0  9995
2 65304  51.6329  40.9506 0007531 330.5355  29.5208 15.49029434   119
PROGRESS-MS 32          
1 65586U 25204A   26002.24250498  .00016008  00000+0  29760-3 0  9998
2 65586  51.6329  40.9506 0007531 330.5355  29.5208 15.49029434   278
