CCSDS_OMM_VERS = 2.0
CREATION_DATE  = 
ORIGINATOR     = 

OBJECT_NAME    = ISS (ZARYA)
OBJECT_ID      = 1998-067A
CENTER_NAME    = EARTH
REF_FRAME      = TEME
TIME_SYSTEM    = UTC
MEAN_ELEMENT_THEORY = SGP/SGP4

EPOCH          = 2026-01-02T13:33:42.409152
MEAN_MOTION    = 15.49039326
ECCENTRICITY   = .000753
INCLINATION    = 51.6329
RA_OF_ASC_NODE = 39.3546
ARG_OF_PERICENTER = 331.9903
MEAN_ANOMALY   = 28.0679

EPHEMERIS_TYPE = 0
CLASSIFICATION_TYPE = U
NORAD_CAT_ID   = 25544
ELEMENT_SET_NO = 999
REV_AT_EPOCH   = 54608
BSTAR          = .29291E-3
MEAN_MOTION_DOT = .15753E-3
MEAN_MOTION_DDOT = 0

CCSDS_OMM_VERS = 2.0
CREATION_DATE  = 
ORIGINATOR     = 

OBJECT_NAME    = CSS (TIANHE)
OBJECT_ID      = 2021-035A
CENTER_NAME    = EARTH
REF_FRAME      = TEME
TIME_SYSTEM    = UTC
MEAN_ELEMENT_THEORY = SGP/SGP4

EPOCH          = 2026-01-02T17:14:11.835456
MEAN_MOTION    = 15.60093313
ECCENTRICITY   = .0010301
INCLINATION    = 41.4660
RA_OF_ASC_NODE = 249.2667
ARG_OF_PERICENTER = 206.2157
MEAN_ANOMALY   = 153.8161

EPHEMERIS_TYPE = 0
CLASSIFICATION_TYPE = U
NORAD_CAT_ID   = 48274
ELEMENT_SET_NO = 999
REV_AT_EPOCH   = 26730
BSTAR          = .37051E-3
MEAN_MOTION_DOT = .30782E-3
MEAN_MOTION_DDOT = 0

CCSDS_OMM_VERS = 2.0
CREATION_DATE  = 
ORIGINATOR     = 

OBJECT_NAME    = ISS (NAUKA)
OBJECT_ID      = 2021-066A
CENTER_NAME    = EARTH
REF_FRAME      = TEME
TIME_SYSTEM    = UTC
MEAN_ELEMENT_THEORY = SGP/SGP4

EPOCH          = 2026-01-02T05:49:12.430272
MEAN_MOTION    = 15.49029434
ECCENTRICITY   = .00075315
INCLINATION    = 51.6329
RA_OF_ASC_NODE = 40.9506
ARG_OF_PERICENTER = 330.5355
MEAN_ANOMALY   = 29.5208

EPHEMERIS_TYPE = 0
CLASSIFICATION_TYPE = U
NORAD_CAT_ID   = 49044
ELEMENT_SET_NO = 999
REV_AT_EPOCH   = 23044
BSTAR          = .2976005E-3
MEAN_MOTION_DOT = .16008E-3
MEAN_MOTION_DDOT = 0

CCSDS_OMM_VERS = 2.0
CREATION_DATE  = 
ORIGINATOR     = 

OBJECT_NAME    = FREGAT DEB
OBJECT_ID      = 2011-037PF
CENTER_NAME    = EARTH
REF_FRAME      = TEME
TIME_SYSTEM    = UTC
MEAN_ELEMENT_THEORY = SGP/SGP4

EPOCH          = 2026-01-02T14:52:34.959648
MEAN_MOTION    = 12.34901136
ECCENTRICITY   = .0873853
INCLINATION    = 51.6430
RA_OF_ASC_NODE = 137.6925
ARG_OF_PERICENTER = 269.6055
MEAN_ANOMALY   = 80.4748

EPHEMERIS_TYPE = 0
CLASSIFICATION_TYPE = U
NORAD_CAT_ID   = 49271
ELEMENT_SET_NO = 999
REV_AT_EPOCH   = 20451
BSTAR          = .61645E-1
MEAN_MOTION_DOT = .28799E-3
MEAN_MOTION_DDOT = 0

CCSDS_OMM_VERS = 2.0
CREATION_DATE  = 
ORIGINATOR     = 

OBJECT_NAME    = CSS (WENTIAN)
OBJECT_ID      = 2022-085A
CENTER_NAME    = EARTH
REF_FRAME      = TEME
TIME_SYSTEM    = UTC
MEAN_ELEMENT_THEORY = SGP/SGP4

EPOCH          = 2026-01-02T03:24:33.153696
MEAN_MOTION    = 15.60055172
ECCENTRICITY   = .00101915
INCLINATION    = 41.4662
RA_OF_ASC_NODE = 252.7694
ARG_OF_PERICENTER = 202.3911
MEAN_ANOMALY   = 157.6484

EPHEMERIS_TYPE = 0
CLASSIFICATION_TYPE = U
NORAD_CAT_ID   = 53239
ELEMENT_SET_NO = 999
REV_AT_EPOCH   = 17384
BSTAR          = .35128331E-3
MEAN_MOTION_DOT = .29116E-3
MEAN_MOTION_DDOT = 0

CCSDS_OMM_VERS = 2.0
CREATION_DATE  = 
ORIGINATOR     = 

OBJECT_NAME    = CSS (MENGTIAN)
OBJECT_ID      = 2022-143A
CENTER_NAME    = EARTH
REF_FRAME      = TEME
TIME_SYSTEM    = UTC
MEAN_ELEMENT_THEORY = SGP/SGP4

EPOCH          = 2026-01-02T03:24:33.153696
MEAN_MOTION    = 15.60055172
ECCENTRICITY   = .00101915
INCLINATION    = 41.4662
RA_OF_ASC_NODE = 252.7694
ARG_OF_PERICENTER = 202.3911
MEAN_ANOMALY   = 157.6484

EPHEMERIS_TYPE = 0
CLASSIFICATION_TYPE = U
NORAD_CAT_ID   = 54216
ELEMENT_SET_NO = 999
REV_AT_EPOCH   = 15864
BSTAR          = .35128331E-3
MEAN_MOTION_DOT = .29116E-3
MEAN_MOTION_DDOT = 0

CCSDS_OMM_VERS = 2.0
CREATION_DATE  = 
ORIGINATOR     = 

OBJECT_NAME    = SHENZHOU-20 (SZ-20)
OBJECT_ID      = 2025-082A
CENTER_NAME    = EARTH
REF_FRAME      = TEME
TIME_SYSTEM    = UTC
MEAN_ELEMENT_THEORY = SGP/SGP4

EPOCH          = 2026-01-02T03:24:33.153696
MEAN_MOTION    = 15.60055172
ECCENTRICITY   = .00101915
INCLINATION    = 41.4662
RA_OF_ASC_NODE = 252.7694
ARG_OF_PERICENTER = 202.3911
MEAN_ANOMALY   = 157.6484

EPHEMERIS_TYPE = 0
CLASSIFICATION_TYPE = U
NORAD_CAT_ID   = 63632
ELEMENT_SET_NO = 999
REV_AT_EPOCH   = 25530
BSTAR          = .35128331E-3
MEAN_MOTION_DOT = .29116E-3
MEAN_MOTION_DDOT = 0

CCSDS_OMM_VERS = 2.0
CREATION_DATE  = 
ORIGINATOR     = 

OBJECT_NAME    = PROGRESS-MS 31
OBJECT_ID      = 2025-146A
CENTER_NAME    = EARTH
REF_FRAME      = TEME
TIME_SYSTEM    = UTC
MEAN_ELEMENT_THEORY = SGP/SGP4

EPOCH          = 2026-01-02T05:49:12.430272
MEAN_MOTION    = 15.49029434
ECCENTRICITY   = .00075315
INCLINATION    = 51.6329
RA_OF_ASC_NODE = 40.9506
ARG_OF_PERICENTER = 330.5355
MEAN_ANOMALY   = 29.5208

EPHEMERIS_TYPE = 0
CLASSIFICATION_TYPE = U
NORAD_CAT_ID   = 64751
ELEMENT_SET_NO = 999
REV_AT_EPOCH   = 675
BSTAR          = .2976005E-3
MEAN_MOTION_DOT = .16008E-3
MEAN_MOTION_DDOT = 0

CCSDS_OMM_VERS = 2.0
CREATION_DATE  = 
ORIGINATOR     = 

OBJECT_NAME    = TIANZHOU-9
OBJECT_ID      = 2025-149A
CENTER_NAME    = EARTH
REF_FRAME      = TEME
TIME_SYSTEM    = UTC
MEAN_ELEMENT_THEORY = SGP/SGP4

EPOCH          = 2026-01-02T03:24:33.153696
MEAN_MOTION    = 15.60055172
ECCENTRICITY   = .00101915
INCLINATION    = 41.4662
RA_OF_ASC_NODE = 252.7694
ARG_OF_PERICENTER = 202.3911
MEAN_ANOMALY   = 157.6484

EPHEMERIS_TYPE = 0
CLASSIFICATION_TYPE = U
NORAD_CAT_ID   = 64786
ELEMENT_SET_NO = 999
REV_AT_EPOCH   = 25530
BSTAR          = .35128331E-3
MEAN_MOTION_DOT = .29116E-3
MEAN_MOTION_DDOT = 0

CCSDS_OMM_VERS = 2.0
CREATION_DATE  = 
ORIGINATOR     = 

OBJECT_NAME    = CREW DRAGON 11
OBJECT_ID      = 2025-166A
CENTER_NAME    = EARTH
REF_FRAME      = TEME
TIME_SYSTEM    = UTC
MEAN_ELEMENT_THEORY = SGP/SGP4

EPOCH          = 2026-01-02T05:49:12.430272
MEAN_MOTION    = 15.49029434
ECCENTRICITY   = .00075315
INCLINATION    = 51.6329
RA_OF_ASC_NODE = 40.9506
ARG_OF_PERICENTER = 330.5355
MEAN_ANOMALY   = 29.5208

EPHEMERIS_TYPE = 0
CLASSIFICATION_TYPE = U
NORAD_CAT_ID   = 65077
ELEMENT_SET_NO = 999
REV_AT_EPOCH   = 214
BSTAR          = .2976005E-3
MEAN_MOTION_DOT = .16008E-3
MEAN_MOTION_DDOT = 0

CCSDS_OMM_VERS = 2.0
CREATION_DATE  = 
ORIGINATOR     = 

OBJECT_NAME    = DRAGON CRS-33
OBJECT_ID      = 2025-186A
CENTER_NAME    = EARTH
REF_FRAME      = TEME
TIME_SYSTEM    = UTC
MEAN_ELEMENT_THEORY = SGP/SGP4

EPOCH          = 2026-01-02T05:49:12.430272
MEAN_MOTION    = 15.49029434
ECCENTRICITY   = .00075315
INCLINATION    = 51.6329
RA_OF_ASC_NODE = 40.9506
ARG_OF_PERICENTER = 330.5355
MEAN_ANOMALY   = 29.5208

EPHEMERIS_TYPE = 0
CLASSIFICATION_TYPE = U
NORAD_CAT_ID   = 65304
ELEMENT_SET_NO = 999
REV_AT_EPOCH   = 11
BSTAR          = .2976005E-3
MEAN_MOTION_DOT = .16008E-3
MEAN_MOTION_DDOT = 0

CCSDS_OMM_VERS = 2.0
CREATION_DATE  = 
ORIGINATOR     = 

OBJECT_NAME    = PROGRESS-MS 32
OBJECT_ID      = 2025-204A
CENTER_NAME    = EARTH
REF_FRAME      = TEME
TIME_SYSTEM    = UTC
MEAN_ELEMENT_THEORY = SGP/SGP4

EPOCH          = 2026-01-02T05:49:12.430272
MEAN_MOTION    = 15.49029434
ECCENTRICITY   = .00075315
INCLINATION    = 51.6329
RA_OF_ASC_NODE = 40.9506
ARG_OF_PERICENTER = 330.5355
MEAN_ANOMALY   = 29.5208

EPHEMERIS_TYPE = 0
CLASSIFICATION_TYPE = U
NORAD_CAT_ID   = 65586
ELEMENT_SET_NO = 999
REV_AT_EPOCH   = 27
BSTAR          = .2976005E-3
MEAN_MOTION_DOT = .16008E-3
MEAN_MOTION_DDOT = 0

